OBJECT_NAME,OBJECT_ID,EPOCH,MEAN_MOTION,ECCENTRICITY,INCLINATION,RA_OF_ASC_NODE,ARG_OF_PERICENTER,MEAN_ANOMALY,EPHEMERIS_TYPE,CLASSIFICATION_TYPE,NORAD_CAT_ID,ELEMENT_SET_NO,REV_AT_EPOCH,BSTAR,MEAN_MOTION_DOT,MEAN_MOTION_DDOT
STARLINK-37745,2026-115X,2026-06-04T22:00:05.000256,15.80766653,.00012378,97.2829,172.7385,116.2281,140.2533,0,U,69232,999,272,.85064106E-3,.16555E-2,0
STARLINK-37739,2026-115Y,2026-06-04T22:00:05.000256,15.80757144,.00009359,97.2834,172.7260,101.1619,127.7558,0,U,69233,999,272,.59897969E-3,.115812E-2,0
STARLINK-37755,2026-115Z,2026-06-04T22:00:05.000256,15.81181440,.00012411,97.2833,172.7318,85.3765,157.1104,0,U,69234,999,272,-.86596162E-2,-.1490968E-1,0
TJS-24,2026-116A,2026-05-26T22:03:24.237792,2.27837712,.7312999,19.5460,149.2488,179.4286,182.6145,0,U,69235,999,2,.21296435E-3,.5573E-4,-.371334E-6
STARLINK-37665,2026-117A,2026-06-04T22:00:05.000256,15.97592332,.00009159,53.1584,305.4257,51.4418,154.1442,0,U,69238,999,219,-.49073885E-2,-.2231E-1,.14202498E-2
STARLINK-37558,2026-117B,2026-06-04T22:00:05.000256,15.97887337,.00009046,53.1582,305.4167,45.8615,164.0898,0,U,69239,999,219,-.4977698E-2,-.2299735E-1,.15108604E-2
STARLINK-37680,2026-117C,2026-06-04T22:00:05.000256,15.98111599,.00008136,53.1584,305.4071,44.2507,170.3252,0,U,69240,999,218,-.48662729E-2,-.2276746E-1,.14857242E-2
STARLINK-37742,2026-117D,2026-06-04T22:00:05.000256,15.98428176,.00009276,53.1583,305.3992,50.7775,167.5139,0,U,69241,999,219,-.46823754E-2,-.223033E-1,.14332268E-2
STARLINK-37718,2026-117E,2026-06-04T22:00:05.000256,15.98771532,.00007496,53.1583,305.3916,47.5733,174.3256,0,U,69242,999,218,-.46591401E-2,-.2262174E-1,.14788556E-2
STARLINK-37735,2026-117F,2026-06-04T22:00:05.000256,15.98788255,.00007669,53.1582,305.3838,38.9282,186.7608,0,U,69243,999,219,-.47871884E-2,-.2326E-1,.15610208E-2
STARLINK-37757,2026-117G,2026-06-04T22:00:05.000256,15.99190637,.00008693,53.1582,305.3717,59.4194,171.9522,0,U,69244,999,219,-.45674905E-2,-.2270755E-1,.14971451E-2
STARLINK-37767,2026-117H,2026-06-04T22:00:05.000256,16.00057749,.00006265,53.1578,305.3484,52.3800,190.3548,0,U,69245,999,219,-.42886052E-2,-.2240266E-1,.1473778E-2
STARLINK-35759,2026-117J,2026-06-04T22:00:05.000256,16.00162430,.00007716,53.1578,305.3416,49.5723,196.4306,0,U,69246,999,224,-.42965395E-2,-.2257794E-1,.1498067E-2
STARLINK-37238,2026-117K,2026-06-04T22:00:05.000256,16.00890666,.00004341,53.1578,305.3247,43.3566,210.6461,0,U,69247,999,219,-.37848138E-2,-.2075754E-1,.12858193E-2
STARLINK-37412,2026-117L,2026-06-04T22:00:05.000256,16.01747422,.00005524,53.1577,305.3087,44.9967,216.7618,0,U,69248,999,226,-.37887688E-2,-.2183084E-1,.14311821E-2
STARLINK-37398,2026-117M,2026-06-04T22:00:05.000256,16.01738189,.00006099,53.1575,305.3023,36.6661,228.0400,0,U,69249,999,226,-.37785141E-2,-.2176071E-1,.14221584E-2
STARLINK-37499,2026-117N,2026-06-04T22:00:05.000256,16.02008846,.0000611,53.1576,305.2948,44.2392,224.1951,0,U,69250,999,226,-.37564979E-2,-.2197816E-1,.14546172E-2
STARLINK-37489,2026-117P,2026-06-04T22:00:05.000256,16.02286901,.00006657,53.1577,305.2827,49.9656,224.1732,0,U,69251,999,226,-.36861824E-2,-.2192323E-1,.14526201E-2
STARLINK-37434,2026-117Q,2026-06-04T22:00:05.000256,16.02702294,.00007004,53.1574,305.2723,50.7905,228.1888,0,U,69252,999,219,-.34819897E-2,-.2122998E-1,.13723568E-2
STARLINK-37368,2026-117R,2026-06-04T22:00:05.000256,16.03760867,.00006125,53.1573,305.2483,44.1164,246.5151,0,U,69253,999,226,-.30935083E-2,-.20103E-1,.12525139E-2
STARLINK-37517,2026-117S,2026-06-04T22:00:05.000256,16.03807352,.00010412,53.1574,305.2409,91.6350,202.8219,0,U,69254,999,226,-.31098814E-2,-.2026517E-1,.12726249E-2
STARLINK-37378,2026-117T,2026-06-04T22:00:05.000256,16.03893321,.00010246,53.1572,305.2325,79.2590,219.0093,0,U,69255,999,218,-.32052874E-2,-.2098787E-1,.13626173E-2
STARLINK-37396,2026-117U,2026-06-04T22:00:05.000256,16.04458171,.00004719,53.1572,305.2194,36.3304,267.9807,0,U,69256,999,226,-.29894136E-2,-.2026056E-1,.1282513E-2
STARLINK-37508,2026-117V,2026-06-04T22:00:05.000256,16.04765633,.00005401,53.1571,305.2092,35.6176,273.4896,0,U,69257,999,218,-.2950542E-2,-.2037363E-1,.13013424E-2
STARLINK-37276,2026-117W,2026-06-04T22:00:05.000256,16.06165596,.00005965,53.1569,305.1929,32.2786,284.5112,0,U,69258,999,218,-.37826988E-3,-.291192E-2,.43836922E-4
STARLINK-37518,2026-117X,2026-06-04T22:00:05.000256,16.06662228,.00006351,53.1568,305.1829,32.8813,289.0724,0,U,69259,999,219,-.33762698E-3,-.268411E-2,.39229629E-4
STARLINK-37478,2026-117Y,2026-06-04T22:00:05.000256,16.07098449,.00006955,53.1570,305.1732,25.0156,301.6063,0,U,69260,999,219,-.99990799E-3,-.80715E-2,.24477279E-3
STARLINK-37506,2026-117Z,2026-06-04T22:00:05.000256,16.07259065,.0000718,53.1567,305.1655,25.7766,304.4898,0,U,69261,999,219,-.1008249E-2,-.822018E-2,.25340818E-3
