STARLINK-37745          
1 69232U 26115X   26155.91672454  .00165550  00000+0  85064-3 0  9991
2 69232  97.2829 172.7385 0001237 116.2281 140.2533 15.80766653  2724
STARLINK-37739          
1 69233U 26115Y   26155.91672454  .00115812  00000+0  59898-3 0  9994
2 69233  97.2834 172.7260 0000935 101.1619 127.7558 15.80757144  2727
STARLINK-37755          
1 69234U 26115Z   26155.91672454 -.01490968  00000+0 -86596-2 0  9990
2 69234  97.2833 172.7318 0001241  85.3765 157.1104 15.81181440  2722
TJS-24                  
1 69235U 26116A   26146.91903053  .00005573 -37133-6  21296-3 0  9997
2 69235  19.5460 149.2488 7312999 179.4286 182.6145  2.27837712    23
STARLINK-37665          
1 69238U 26117A   26155.91672454 -.02231000  14202-2 -49074-2 0  9999
2 69238  53.1584 305.4257 0000915  51.4418 154.1442 15.97592332  2199
STARLINK-37558          
1 69239U 26117B   26155.91672454 -.02299735  15109-2 -49777-2 0  9996
2 69239  53.1582 305.4167 0000904  45.8615 164.0898 15.97887337  2199
STARLINK-37680          
1 69240U 26117C   26155.91672454 -.02276746  14857-2 -48663-2 0  9997
2 69240  53.1584 305.4071 0000813  44.2507 170.3252 15.98111599  2183
STARLINK-37742          
1 69241U 26117D   26155.91672454 -.02230330  14332-2 -46824-2 0  9992
2 69241  53.1583 305.3992 0000927  50.7775 167.5139 15.98428176  2194
STARLINK-37718          
1 69242U 26117E   26155.91672454 -.02262174  14789-2 -46591-2 0  9991
2 69242  53.1583 305.3916 0000749  47.5733 174.3256 15.98771532  2183
STARLINK-37735          
1 69243U 26117F   26155.91672454 -.02326000  15610-2 -47872-2 0  9998
2 69243  53.1582 305.3838 0000766  38.9282 186.7608 15.98788255  2197
STARLINK-37757          
1 69244U 26117G   26155.91672454 -.02270755  14971-2 -45675-2 0  9992
2 69244  53.1582 305.3717 0000869  59.4194 171.9522 15.99190637  2191
STARLINK-37767          
1 69245U 26117H   26155.91672454 -.02240266  14738-2 -42886-2 0  9999
2 69245  53.1578 305.3484 0000626  52.3800 190.3548 16.00057749  2197
STARLINK-35759          
1 69246U 26117J   26155.91672454 -.02257794  14981-2 -42965-2 0  9992
2 69246  53.1578 305.3416 0000771  49.5723 196.4306 16.00162430  2245
STARLINK-37238          
1 69247U 26117K   26155.91672454 -.02075754  12858-2 -37848-2 0  9992
2 69247  53.1578 305.3247 0000434  43.3566 210.6461 16.00890666  2195
STARLINK-37412          
1 69248U 26117L   26155.91672454 -.02183084  14312-2 -37888-2 0  9990
2 69248  53.1577 305.3087 0000552  44.9967 216.7618 16.01747422  2261
STARLINK-37398          
1 69249U 26117M   26155.91672454 -.02176071  14222-2 -37785-2 0  9995
2 69249  53.1575 305.3023 0000609  36.6661 228.0400 16.01738189  2267
STARLINK-37499          
1 69250U 26117N   26155.91672454 -.02197816  14546-2 -37565-2 0  9992
2 69250  53.1576 305.2948 0000611  44.2392 224.1951 16.02008846  2263
STARLINK-37489          
1 69251U 26117P   26155.91672454 -.02192323  14526-2 -36862-2 0  9998
2 69251  53.1577 305.2827 0000665  49.9656 224.1732 16.02286901  2262
STARLINK-37434          
1 69252U 26117Q   26155.91672454 -.02122998  13724-2 -34820-2 0  9991
2 69252  53.1574 305.2723 0000700  50.7905 228.1888 16.02702294  2198
STARLINK-37368          
1 69253U 26117R   26155.91672454 -.02010300  12525-2 -30935-2 0  9996
2 69253  53.1573 305.2483 0000612  44.1164 246.5151 16.03760867  2263
STARLINK-37517          
1 69254U 26117S   26155.91672454 -.02026517  12726-2 -31099-2 0  9999
2 69254  53.1574 305.2409 0001041  91.6350 202.8219 16.03807352  2265
STARLINK-37378          
1 69255U 26117T   26155.91672454 -.02098787  13626-2 -32053-2 0  9999
2 69255  53.1572 305.2325 0001024  79.2590 219.0093 16.03893321  2182
STARLINK-37396          
1 69256U 26117U   26155.91672454 -.02026056  12825-2 -29894-2 0  9999
2 69256  53.1572 305.2194 0000471  36.3304 267.9807 16.04458171  2264
STARLINK-37508          
1 69257U 26117V   26155.91672454 -.02037363  13013-2 -29505-2 0  9992
2 69257  53.1571 305.2092 0000540  35.6176 273.4896 16.04765633  2182
STARLINK-37276          
1 69258U 26117W   26155.91672454 -.00291192  43837-4 -37827-3 0  9999
2 69258  53.1569 305.1929 0000596  32.2786 284.5112 16.06165596  2187
STARLINK-37518          
1 69259U 26117X   26155.91672454 -.00268411  39230-4 -33763-3 0  9995
2 69259  53.1568 305.1829 0000635  32.8813 289.0724 16.06662228  2191
STARLINK-37478          
1 69260U 26117Y   26155.91672454 -.00807150  24477-3 -99991-3 0  9997
2 69260  53.1570 305.1732 0000695  25.0156 301.6063 16.07098449  2195
STARLINK-37506          
1 69261U 26117Z   26155.91672454 -.00822018  25341-3 -10082-2 0  9992
2 69261  53.1567 305.1655 0000718  25.7766 304.4898 16.07259065  2196
